SIRION PATHFINDER-2     
1 43759U 18099B   26138.05167250  .00003310  00000+0  18442-3 0  9999
2 43759  97.4272 187.8285 0009939  52.5691 307.6444 15.14249074408061
CORVUS BC4              
1 43767U 18099K   26138.08380287  .00003097  00000+0  18270-3 0  9999
2 43767  97.4086 181.9478 0010050 103.8501 256.3848 15.12226424407854
M2 PATHFINDER           
1 45727U 20037E   26138.05338862  .00001245  00000+0  93324-4 0  9998
2 45727  97.8162 328.9486 0009928 252.2195 107.7947 15.04533835320966
NETSAT-4                
1 46504U 20068U   26137.00258065  .00014468  00000+0  33255-3 0  9993
2 46504  97.8609 142.7654 0007520  79.7395 280.4699 15.42764332310967
NETSAT-3                
1 46505U 20068V   26137.24409056  .00012629  00000+0  30267-3 0  9995
2 46505  97.8658 141.2828 0007540  92.0292 268.1817 15.41541908310916
NETSAT-1                
1 46506U 20068W   26137.93835331  .00009500  00000+0  29258-3 0  9993
2 46506  97.8749 136.7112 0006967 109.5114 250.6881 15.33849037310666
NETSAT-2                
1 46507U 20068X   26137.98945081  .00015251  00000+0  32928-3 0  9991
2 46507  97.8626 143.6216 0006278  99.5922 260.6035 15.44624884311074
GREENCUBE (IO-117)      
1 53109U 22080E   26137.52392553 -.00000003  00000+0  00000+0 0  9995
2 53109  70.1432 308.9131 0008812 296.7194  63.2564  6.42583321 90097
SITRO-AIS 5 (KATYS)     
1 57176U 23091L   26138.16335031  .00006728  00000+0  24344-3 0  9995
2 57176  97.5074 201.7920 0011220 200.5058 159.5733 15.28703695159753
SITRO-AIS 6 (CHIRKIN)   
1 57192U 23091AC  26138.20553098  .00005767  00000+0  23153-3 0  9992
2 57192  97.5082 201.1093 0011355 203.7914 156.2800 15.25312295159714
SITRO-AIS 8 (ANOKHIN)   
1 57193U 23091AD  26138.16621698  .00008000  00000+0  26723-3 0  9999
2 57193  97.5069 203.2647 0010544 195.9316 164.1594 15.31250497159850
SITRO-AIS 7 (FARTUSHNIY)
1 57194U 23091AE  26138.20268878  .00005717  00000+0  23161-3 0  9997
2 57194  97.5080 200.9465 0011152 204.8061 155.2642 15.25014587159709
SITRO-AIS 10 (BURDAEV)  
1 57199U 23091AK  26138.19057676  .00011738  00000+0  32222-3 0  9990
2 57199  97.5092 208.0425 0007532 168.9634 191.1776 15.37385846160155
SITRO-AIS 9 (SHCHUKIN)  
1 57201U 23091AM  26138.14271093  .00013155  00000+0  36607-3 0  9996
2 57201  97.5092 207.7463 0007693 169.5054 190.6352 15.36929875160135
SITRO-AIS 12 (SMIRENNIY)
1 57204U 23091AQ  26138.20404352  .00011302  00000+0  31205-3 0  9993
2 57204  97.5103 208.2576 0007510 163.5313 196.6177 15.37215911160166
SITRO-AIS 11 (SHEFFER)  
1 57208U 23091AU  26138.16038565  .00013630  00000+0  37097-3 0  9992
2 57208  97.5102 208.4412 0007416 163.6251 196.5234 15.37612680160175
SITRO-AIS 25            
1 59066U 24039R   26138.15766661  .00003849  00000+0  29936-3 0  9997
2 59066  95.3919 214.4594 0147362  73.4616 288.2738 14.93293277120247
SITRO-AIS 26            
1 59067U 24039S   26138.15498904  .00003765  00000+0  29419-3 0  9993
2 59067  95.3919 214.3614 0147680  73.9968 287.7467 14.93095412120231
SITRO-AIS 27            
1 59068U 24039T   26138.20058825  .00002962  00000+0  23012-3 0  9995
2 59068  95.3919 214.6507 0146579  72.5140 289.2045 14.93505178120266
SITRO-AIS 28            
1 59071U 24039U   26138.17871918  .00003042  00000+0  23603-3 0  9997
2 59071  95.3924 214.6812 0146632  72.4454 289.2731 14.93543357120265
GRBBETA                 
1 60237U 24128C   26138.08628777  .00002908  00000+0  20693-3 0  9991
2 60237  61.9901 321.8549 0044732 128.4208 232.0915 15.06369773101734
OOV-CUBE (TUBSAT-30)    
1 60240U 24128F   26137.97822066  .00001588  00000+0  13161-3 0  9994
2 60240  61.9946 330.8982 0048399 127.1885 233.3639 15.02605639101577
ROBUSTA-3A (MEDITERRAN*)
1 60243U 24128J   26137.90077063  .00006089  00000+0  36543-3 0  9999
2 60243  61.9866 315.3083 0045478 122.3305 238.2206 15.11159699101844
LASARSAT                
1 62391U 24247Q   26138.17664598  .00017977  00000+0  38742-3 0  9993
2 62391  44.9757  70.5961 0005334 157.7769 202.3352 15.44378844 78677
CROCUBE                 
1 62394U 24247T   26138.20848084  .00021336  00000+0  43364-3 0  9994
2 62394  44.9731  68.2037 0005074 161.9433 198.1638 15.45997443 78702
FORESAIL-1 PRIME        
1 66778U 25276DS  26138.14640363  .00003594  00000+0  17800-3 0  9992
2 66778  97.4208 211.9724 0002301 170.4072 189.7206 15.18400035 25848
KNACKSAT-2              
1 67683U 98067XZ  26138.15020715  .00031493  00000+0  42858-3 0  9990
2 67683  51.6302  85.2389 0012324  88.8056 271.4348 15.57192031 15594
