OBJECT_NAME,OBJECT_ID,EPOCH,MEAN_MOTION,ECCENTRICITY,INCLINATION,RA_OF_ASC_NODE,ARG_OF_PERICENTER,MEAN_ANOMALY,EPHEMERIS_TYPE,CLASSIFICATION_TYPE,NORAD_CAT_ID,ELEMENT_SET_NO,REV_AT_EPOCH,BSTAR,MEAN_MOTION_DOT,MEAN_MOTION_DDOT
SIRION PATHFINDER-2,2018-099B,2026-05-18T01:14:24.504000,15.14249074,.0009939,97.4272,187.8285,52.5691,307.6444,0,U,43759,999,40806,.18442E-3,.331E-4,0
CORVUS BC4,2018-099K,2026-05-18T02:00:40.567968,15.12226424,.001005,97.4086,181.9478,103.8501,256.3848,0,U,43767,999,40785,.1827E-3,.3097E-4,0
M2 PATHFINDER,2020-037E,2026-05-18T01:16:52.776768,15.04533835,.0009928,97.8162,328.9486,252.2195,107.7947,0,U,45727,999,32096,.93324E-4,.1245E-4,0
NETSAT-4,2020-068U,2026-05-17T00:03:42.968160,15.42764332,.00075209,97.8609,142.7654,79.7395,280.4699,0,U,46504,999,31096,.33254954E-3,.14468E-3,0
NETSAT-3,2020-068V,2026-05-17T05:51:29.424384,15.41541908,.00075405,97.8658,141.2828,92.0292,268.1817,0,U,46505,999,31091,.3026692E-3,.12629E-3,0
NETSAT-1,2020-068W,2026-05-17T22:31:13.725984,15.33849037,.00069674,97.8749,136.7112,109.5114,250.6881,0,U,46506,999,31066,.29257526E-3,.95E-4,0
NETSAT-2,2020-068X,2026-05-17T23:44:48.549984,15.44624884,.0006278,97.8626,143.6216,99.5922,260.6035,0,U,46507,999,31107,.32928E-3,.15251E-3,0
GREENCUBE (IO-117),2022-080E,2026-05-17T12:34:27.165792,6.42583321,.00088126,70.1432,308.9131,296.7194,63.2564,0,U,53109,999,9009,0,-.3E-7,0
SITRO-AIS 5 (KATYS),2023-091L,2026-05-18T03:55:13.466784,15.28703695,.001122,97.5074,201.7920,200.5058,159.5733,0,U,57176,999,15975,.24344E-3,.6728E-4,0
SITRO-AIS 6 (CHIRKIN),2023-091AC,2026-05-18T04:55:57.876672,15.25312295,.0011355,97.5082,201.1093,203.7914,156.2800,0,U,57192,999,15971,.23153E-3,.5767E-4,0
SITRO-AIS 8 (ANOKHIN),2023-091AD,2026-05-18T03:59:21.147072,15.31250497,.0010544,97.5069,203.2647,195.9316,164.1594,0,U,57193,999,15985,.26723E-3,.8E-4,0
SITRO-AIS 7 (FARTUSHNIY),2023-091AE,2026-05-18T04:51:52.310592,15.25014587,.0011152,97.5080,200.9465,204.8061,155.2642,0,U,57194,999,15970,.23161E-3,.5717E-4,0
SITRO-AIS 10 (BURDAEV),2023-091AK,2026-05-18T04:34:25.832064,15.37385846,.0007532,97.5092,208.0425,168.9634,191.1776,0,U,57199,999,16015,.32222E-3,.11738E-3,0
SITRO-AIS 9 (SHCHUKIN),2023-091AM,2026-05-18T03:25:30.224352,15.36929875,.0007693,97.5092,207.7463,169.5054,190.6352,0,U,57201,999,16013,.36607E-3,.13155E-3,0
SITRO-AIS 12 (SMIRENNIY),2023-091AQ,2026-05-18T04:53:49.360128,15.37215911,.000751,97.5103,208.2576,163.5313,196.6177,0,U,57204,999,16016,.31205E-3,.11302E-3,0
SITRO-AIS 11 (SHEFFER),2023-091AU,2026-05-18T03:50:57.320160,15.37612680,.0007416,97.5102,208.4412,163.6251,196.5234,0,U,57208,999,16017,.37097E-3,.1363E-3,0
SITRO-AIS 25,2024-039R,2026-05-18T03:47:02.395104,14.93293277,.0147362,95.3919,214.4594,73.4616,288.2738,0,U,59066,999,12024,.29936E-3,.3849E-4,0
SITRO-AIS 26,2024-039S,2026-05-18T03:43:11.053056,14.93095412,.014768,95.3919,214.3614,73.9968,287.7467,0,U,59067,999,12023,.29419E-3,.3765E-4,0
SITRO-AIS 27,2024-039T,2026-05-18T04:48:50.824800,14.93505178,.0146579,95.3919,214.6507,72.5140,289.2045,0,U,59068,999,12026,.23012E-3,.2962E-4,0
SITRO-AIS 28,2024-039U,2026-05-18T04:17:21.337152,14.93543357,.0146632,95.3924,214.6812,72.4454,289.2731,0,U,59071,999,12026,.23603E-3,.3042E-4,0
GRBBETA,2024-128C,2026-05-18T02:04:15.263328,15.06369773,.0044732,61.9901,321.8549,128.4208,232.0915,0,U,60237,999,10173,.20693E-3,.2908E-4,0
OOV-CUBE (TUBSAT-30),2024-128F,2026-05-17T23:28:38.265024,15.02605639,.0048399,61.9946,330.8982,127.1885,233.3639,0,U,60240,999,10157,.13161E-3,.1588E-4,0
ROBUSTA-3A (MEDITERRANEE),2024-128J,2026-05-17T21:37:06.582432,15.11159699,.00454787,61.9866,315.3083,122.3305,238.2206,0,U,60243,999,10184,.36543233E-3,.6089E-4,0
LASARSAT,2024-247Q,2026-05-18T04:14:22.212672,15.44378844,.0005334,44.9757,70.5961,157.7769,202.3352,0,U,62391,999,7867,.38742E-3,.17977E-3,0
CROCUBE,2024-247T,2026-05-18T05:00:12.744576,15.45997443,.0005074,44.9731,68.2037,161.9433,198.1638,0,U,62394,999,7870,.43364E-3,.21336E-3,0
FORESAIL-1 PRIME,2025-276DS,2026-05-18T03:30:49.273632,15.18400035,.0002301,97.4208,211.9724,170.4072,189.7206,0,U,66778,999,2584,.178E-3,.3594E-4,0
KNACKSAT-2,1998-067XZ,2026-05-18T03:36:17.897760,15.57192031,.0012324,51.6302,85.2389,88.8056,271.4348,0,U,67683,999,1559,.42858E-3,.31493E-3,0
